[Satellite]
VERSION=1.1
NAME=IRIDIUM 151
NICKNAME=IRIDIUM 151
TLE1=1 43074U 17083E   22342.41712091  .00000161  00000+0  50300-4 0  9994
TLE2=2 43074  86.3966 139.8643 0002155  86.6289 273.5153 14.34217249259700
STATUS=0
